COSMOS 2419 (714)       
1 28915U 05050A   16195.55650253 -.00000051  00000-0  00000-0 0  9995
2 28915  65.3329  77.2744 0016338 353.9614 214.3580  2.13110831 82113
COSMOS 2425 (716)       
1 29670U 06062A   16196.15195278 -.00000065  00000-0  10000-3 0  9995
2 29670  65.6230 316.2489 0020099 348.4314  13.7562  2.13104930 74332
COSMOS 2426 (717)       
1 29671U 06062B   16196.38750659 -.00000065  00000-0  10000-3 0  9991
2 29671  65.6395 316.3238 0018416 161.9195 241.6901  2.13102903 74341
COSMOS 2424 (715)       
1 29672U 06062C   16195.66078061 -.00000065  00000-0  10000-3 0  9992
2 29672  65.6242 316.2755 0017846 161.0430 221.2986  2.13102310 74322
COSMOS 2433 (720)       
1 32275U 07052A   16195.20448293 -.00000053  00000-0  10000-3 0  9990
2 32275  65.3482  77.0570 0001910 296.0497 251.3106  2.13104709 67821
COSMOS 2432 (719)       
1 32276U 07052B   16195.62641142 -.00000050  00000-0  10000-3 0  9992
2 32276  65.3605  77.1089 0012393 342.2321 122.5883  2.13104258 67833
COSMOS 2434 (721)       
1 32393U 07065A   16196.10399463 -.00000066  00000-0  00000+0 0  9998
2 32393  65.2396 315.5605 0005506 115.7876 293.4810  2.13102830 66558
COSMOS 2436 (723)       
1 32395U 07065C   16195.55802633 -.00000066  00000-0  10000-3 0  9991
2 32395  65.2540 315.6227 0015815 358.1507  84.2935  2.13102891 66472
COSMOS 2443 (725)       
1 33379U 08046B   16195.33757892 -.00000052  00000-0  10000-3 0  9991
2 33379  65.2773  76.4664 0016408 182.7035  11.5512  2.13101389 60699
COSMOS 2456 (730)       
1 36111U 09070A   16195.55230576  .00000100  00000-0  00000-0 0  9994
2 36111  64.1829 195.1622 0006491 295.7156 219.9864  2.13102909 51209
COSMOS 2457 (733)       
1 36112U 09070B   16195.59311333  .00000100  00000-0  00000+0 0  9999
2 36112  64.1653 195.0870 0006848 190.3387 126.7973  2.13101596 51208
COSMOS 2458 (734)       
1 36113U 09070C   16196.28399612  .00000101  00000-0  10000-3 0  9999
2 36113  64.1701 195.0696 0002700 291.8149 242.9145  2.13101965 51229
COSMOS 2459 (731)       
1 36400U 10007A   16196.35425554 -.00000044  00000-0  10000-3 0  9990
2 36400  65.2567  76.1667 0029038 355.0141 219.5468  2.13102363 49571
COSMOS 2461 (735)       
1 36401U 10007B   16196.14039142 -.00000046  00000-0  10000-3 0  9994
2 36401  65.2503  76.1541 0007392  65.4248 255.6453  2.13102495 49562
COSMOS 2460 (732)       
1 36402U 10007C   16196.29071705 -.00000045  00000-0  10000-3 0  9991
2 36402  65.2402  76.1252 0001472  39.8117  78.3917  2.13101860 49574
COSMOS 2465 (737)       
1 37138U 10041B   16195.91825021 -.00000066  00000-0  00000+0 0  9990
2 37138  64.8405 315.7265 0036282 169.1634 141.5453  2.13093919 45639
COSMOS 2464 (736)       
1 37139U 10041C   16196.30707858 -.00000066  00000-0  00000+0 0  9992
2 37139  64.8463 315.7084 0021853  16.1146  56.6543  2.13102622 45650
COSMOS 2471 (701K)      
1 37372U 11009A   16195.77264837 -.00000049  00000-0  00000-0 0  9993
2 37372  65.2378  76.0928 0006776 236.3231 337.1134  2.13102750 41832
COSMOS 2474 (742)       
1 37829U 11055A   16195.68630953  .00000101  00000-0  00000+0 0  9994
2 37829  64.5074 195.5806 0010811 254.2299 225.5792  2.13101925 37203
COSMOS 2476 (744)       
1 37867U 11064A   16195.59314322  .00000101  00000-0  00000-0 0  9996
2 37867  64.4870 195.6648 0019742 248.5397 205.6434  2.13102018 36553
COSMOS 2477 (745)       
1 37868U 11064B   16196.07861818  .00000102  00000-0  00000+0 0  9998
2 37868  64.4955 195.6890 0017763 250.0235  35.8877  2.13101887 36510
COSMOS 2475 (743)       
1 37869U 11064C   16195.99702166  .00000102  00000-0  00000+0 0  9999
2 37869  64.5035 195.6800 0023086 273.4503 266.0036  2.13102070 36525
COSMOS 2485 (747)       
1 39155U 13019A   16196.45968433  .00000103  00000-0  00000+0 0  9995
2 39155  64.6568 195.5913 0019972 243.7686 200.3160  2.13102048 25041
COSMOS 2492 (754)       
1 39620U 14012A   16195.74040091 -.00000050  00000-0  10000-3 0  9995
2 39620  65.1277  76.1285 0015625 338.1162 307.4576  2.13103403 17975
COSMOS 2500 (755)       
1 40001U 14032A   16195.69824471 -.00000050  00000-0  00000-0 0  9994
2 40001  65.0690  76.1523 0004636 202.6983 274.2476  2.13103045 16194
COSMOS 2501 (702K)      
1 40315U 14075A   16196.30569139 -.00000066  00000-0  00000+0 0  9991
2 40315  64.6111 317.1580 0017277 230.8925 153.1506  2.13101614 12612
COSMOS 2514 (751)       
1 41330U 16008A   16196.41086134 -.00000045  00000-0  00000+0 0  9995
2 41330  64.8676  76.3572 0007790 215.0347 267.7086  2.13103590  3378
COSMOS 2516 (753)       
1 41554U 16032A   16196.11505449 -.00000066  00000-0  00000+0 0  9995
2 41554  64.7925 316.8473 0011278 215.9901 294.5536  2.13101501   976
